[{"OBJECT_NAME":"STARLINK-1063","OBJECT_ID":"2019-074BH","EPOCH":"2026-03-09T18:03:14.732640","MEAN_MOTION":15.29959368,"ECCENTRICITY":0.00012189,"INCLINATION":53.1603,"RA_OF_ASC_NODE":219.104,"ARG_OF_PERICENTER":60.1573,"MEAN_ANOMALY":299.9548,"EPHEMERIS_TYPE":0,"CLASSIFICATION_TYPE":"U","NORAD_CAT_ID":44768,"ELEMENT_SET_NO":999,"REV_AT_EPOCH":34832,"BSTAR":-0.029857537,"MEAN_MOTION_DOT":-0.00812325,"MEAN_MOTION_DDOT":0},{"OBJECT_NAME":"YAOGAN-35 04C","OBJECT_ID":"2022-100E","EPOCH":"2026-03-09T22:54:54.133344","MEAN_MOTION":15.20344073,"ECCENTRICITY":0.00105729,"INCLINATION":34.9966,"RA_OF_ASC_NODE":338.2554,"ARG_OF_PERICENTER":249.1689,"MEAN_ANOMALY":110.7893,"EPHEMERIS_TYPE":0,"CLASSIFICATION_TYPE":"U","NORAD_CAT_ID":53526,"ELEMENT_SET_NO":999,"REV_AT_EPOCH":19784,"BSTAR":0.00040733017,"MEAN_MOTION_DOT":9.062e-5,"MEAN_MOTION_DDOT":0}]
